{
    "links": {
        "self": "http://www.neowsapp.com/rest/v1/neo/3608933?api_key=iIulBulltgU6a56xZRHN4H3l9WmuAYTsLGpBGhQ2"
    },
    "id": "3608933",
    "neo_reference_id": "3608933",
    "name": "(2012 SA22)",
    "designation": "2012 SA22",
    "nasa_jpl_url": "http://ssd.jpl.nasa.gov/sbdb.cgi?sstr=3608933",
    "absolute_magnitude_h": 18.0,
    "estimated_diameter": {
        "kilometers": {
            "estimated_diameter_min": 0.6676594135,
            "estimated_diameter_max": 1.4929318344
        },
        "meters": {
            "estimated_diameter_min": 667.6594134952,
            "estimated_diameter_max": 1492.931834393
        },
        "miles": {
            "estimated_diameter_min": 0.4148641974,
            "estimated_diameter_max": 0.9276645469
        },
        "feet": {
            "estimated_diameter_min": 2190.4837101717,
            "estimated_diameter_max": 4898.07047955
        }
    },
    "is_potentially_hazardous_asteroid": false,
    "close_approach_data": [
        {
            "close_approach_date": "1955-11-29",
            "close_approach_date_full": "1955-Nov-29 10:27",
            "epoch_date_close_approach": -444663180000,
            "relative_velocity": {
                "kilometers_per_second": "16.1570887819",
                "kilometers_per_hour": "58165.5196149534",
                "miles_per_hour": "36141.7918963026"
            },
            "miss_distance": {
                "astronomical": "0.430988861",
                "lunar": "167.654666929",
                "kilometers": "64475015.59932607",
                "miles": "40062916.951276966"
            },
            "orbiting_body": "Earth"
        },
        {
            "close_approach_date": "2020-11-30",
            "close_approach_date_full": "2020-Nov-30 02:18",
            "epoch_date_close_approach": 1606702680000,
            "relative_velocity": {
                "kilometers_per_second": "15.1121153707",
                "kilometers_per_hour": "54403.6153344581",
                "miles_per_hour": "33804.2908726804"
            },
            "miss_distance": {
                "astronomical": "0.4499708758",
                "lunar": "175.0386706862",
                "kilometers": "67314684.581714546",
                "miles": "41827405.4365148948"
            },
            "orbiting_body": "Earth"
        },
        {
            "close_approach_date": "2077-11-29",
            "close_approach_date_full": "2077-Nov-29 18:27",
            "epoch_date_close_approach": 3405436020000,
            "relative_velocity": {
                "kilometers_per_second": "15.1723167092",
                "kilometers_per_hour": "54620.3401529954",
                "miles_per_hour": "33938.9552467321"
            },
            "miss_distance": {
                "astronomical": "0.4502482982",
                "lunar": "175.1465879998",
                "kilometers": "67356186.381844834",
                "miles": "41853193.4593093492"
            },
            "orbiting_body": "Earth"
        },
        {
            "close_approach_date": "2142-11-30",
            "close_approach_date_full": "2142-Nov-30 05:50",
            "epoch_date_close_approach": 5456613000000,
            "relative_velocity": {
                "kilometers_per_second": "15.9915385086",
                "kilometers_per_hour": "57569.5386308394",
                "miles_per_hour": "35771.4724898124"
            },
            "miss_distance": {
                "astronomical": "0.4274435917",
                "lunar": "166.2755571713",
                "kilometers": "63944650.863469679",
                "miles": "39733363.5860084102"
            },
            "orbiting_body": "Earth"
        }
    ],
    "orbital_data": {
        "orbit_id": "51",
        "orbit_determination_date": "2020-12-08 05:23:44",
        "first_observation_date": "2012-09-18",
        "last_observation_date": "2020-12-07",
        "data_arc_in_days": 3002,
        "observations_used": 248,
        "orbit_uncertainty": "0",
        "minimum_orbit_intersection": ".432202",
        "jupiter_tisserand_invariant": "3.106",
        "epoch_osculation": "2459000.5",
        "eccentricity": ".4923002868945923",
        "semi_major_axis": "2.548040725109316",
        "inclination": "29.19024673724239",
        "ascending_node_longitude": "265.1822394931523",
        "orbital_period": "1485.620810617438",
        "perihelion_distance": "1.293639545118895",
        "perihelion_argument": "125.8171585503094",
        "aphelion_distance": "3.802441905099736",
        "perihelion_time": "2459131.763640806391",
        "mean_anomaly": "328.1918088703529",
        "mean_motion": ".2423229382808528",
        "equinox": "J2000",
        "orbit_class": {
            "orbit_class_type": "AMO",
            "orbit_class_description": "Near-Earth asteroid orbits similar to that of 1221 Amor",
            "orbit_class_range": "1.017 AU < q (perihelion) < 1.3 AU"
        }
    },
    "is_sentry_object": false
}